[{"OBJECT_NAME":"TIANQI-6","OBJECT_ID":"2020-076D","EPOCH":"2026-03-09T22:50:24.728640","MEAN_MOTION":15.06417552,"ECCENTRICITY":0.00106023,"INCLINATION":34.9994,"RA_OF_ASC_NODE":297.1791,"ARG_OF_PERICENTER":9.4595,"MEAN_ANOMALY":350.6312,"EPHEMERIS_TYPE":0,"CLASSIFICATION_TYPE":"U","NORAD_CAT_ID":46810,"ELEMENT_SET_NO":999,"REV_AT_EPOCH":29360,"BSTAR":0.00037023286,"MEAN_MOTION_DOT":5.552e-5,"MEAN_MOTION_DDOT":0},{"OBJECT_NAME":"STARLINK-34995","OBJECT_ID":"2025-184N","EPOCH":"2026-03-09T17:16:54.649344","MEAN_MOTION":15.05656869,"ECCENTRICITY":0.00011576,"INCLINATION":97.6017,"RA_OF_ASC_NODE":122.6631,"ARG_OF_PERICENTER":146.3956,"MEAN_ANOMALY":213.7345,"EPHEMERIS_TYPE":0,"CLASSIFICATION_TYPE":"U","NORAD_CAT_ID":65285,"ELEMENT_SET_NO":999,"REV_AT_EPOCH":3130,"BSTAR":0.00017779563,"MEAN_MOTION_DOT":2.506e-5,"MEAN_MOTION_DDOT":0}]
